start=new Date('2022-02-17T00:00:00.000Z').valueOf();
sats=[{"OBJECT_ID":"2021-012AX","ARG_OF_PERICENTER":"156.6833","RA_OF_ASC_NODE":"218.6603","MEAN_ELEMENT_THEORY":"SGP4","SEMIMAJOR_AXIS":"6925.395","BSTAR":"0.00003429000000","FILE":"3302660","OBJECT_NAME":"STARLINK-2056","NORAD_CAT_ID":"47665","ECCENTRICITY":"0.00015100","COUNTRY_CODE":"US","SITE":"AFETR","GP_ID":"196132403","LAUNCH_DATE":"2021-02-16","TIME_SYSTEM":"UTC","TLE_LINE2":"2 47665  53.0544 218.6603 0001510 156.6833 203.4225 15.06384734 56994","INCLINATION":"53.0544","TLE_LINE1":"1 47665U 21012AX  22047.89190105  .00000229  00000-0  34290-4 0  9997","MEAN_MOTION_DDOT":"0.0000000000000","PERIAPSIS":"546.215","MEAN_MOTION_DOT":"0.00000229","REV_AT_EPOCH":"5699","RCS_SIZE":"LARGE","MEAN_MOTION":"15.06384734","CENTER_NAME":"EARTH","EPHEMERIS_TYPE":"0","OBJECT_TYPE":"PAYLOAD","REF_FRAME":"TEME","EPOCH":"2022-02-16T21:24:20.250720","ELEMENT_SET_NO":"999","APOAPSIS":"548.306","DECAY_DATE":null,"MEAN_ANOMALY":"203.4225","PERIOD":"95.593","CLASSIFICATION_TYPE":"U"},{"INCLINATION":"53.0548","TLE_LINE2":"2 47666  53.0548 219.1167 0001605  77.4120 282.7049 15.06392989 56988","LAUNCH_DATE":"2021-02-16","TIME_SYSTEM":"UTC","GP_ID":"196132154","SITE":"AFETR","COUNTRY_CODE":"US","NORAD_CAT_ID":"47666","ECCENTRICITY":"0.00016050","OBJECT_NAME":"STARLINK-2057","BSTAR":"0.00012757000000","FILE":"3302660","SEMIMAJOR_AXIS":"6925.370","MEAN_ELEMENT_THEORY":"SGP4","RA_OF_ASC_NODE":"219.1167","ARG_OF_PERICENTER":"77.4120","OBJECT_ID":"2021-012AY","CLASSIFICATION_TYPE":"U","PERIOD":"95.593","MEAN_ANOMALY":"282.7049","DECAY_DATE":null,"APOAPSIS":"548.347","ELEMENT_SET_NO":"999","EPOCH":"2022-02-16T19:01:02.677440","REF_FRAME":"TEME","OBJECT_TYPE":"PAYLOAD","EPHEMERIS_TYPE":"0","CENTER_NAME":"EARTH","MEAN_MOTION":"15.06392989","RCS_SIZE":"MEDIUM","REV_AT_EPOCH":"5698","MEAN_MOTION_DOT":"0.00001619","PERIAPSIS":"546.124","MEAN_MOTION_DDOT":"0.0000000000000","TLE_LINE1":"1 47666U 21012AY  22047.79239210  .00001619  00000-0  12757-3 0  9995"},{"LAUNCH_DATE":"2021-02-16","TIME_SYSTEM":"UTC","TLE_LINE2":"2 47667  53.0529 243.7237 0001830  65.5327 294.5853 15.06407076 56625","INCLINATION":"53.0529","GP_ID":"196130902","SEMIMAJOR_AXIS":"6925.327","BSTAR":"0.00033629000000","FILE":"3302660","ARG_OF_PERICENTER":"65.5327","OBJECT_ID":"2021-012AZ","RA_OF_ASC_NODE":"243.7237","MEAN_ELEMENT_THEORY":"SGP4","NORAD_CAT_ID":"47667","ECCENTRICITY":"0.00018300","SITE":"AFETR","COUNTRY_CODE":"US","OBJECT_NAME":"STARLINK-2058","ELEMENT_SET_NO":"999","APOAPSIS":"548.459","DECAY_DATE":null,"OBJECT_TYPE":"PAYLOAD","REF_FRAME":"TEME","EPOCH":"2022-02-16T21:09:07.601472","PERIOD":"95.592","CLASSIFICATION_TYPE":"U","MEAN_ANOMALY":"294.5853","MEAN_MOTION_DDOT":"0.0000000000000","PERIAPSIS":"545.925","MEAN_MOTION_DOT":"0.00004732","TLE_LINE1":"1 47667U 21012AZ  22047.88133798  .00004732  00000-0  33629-3 0  9990","CENTER_NAME":"EARTH","EPHEMERIS_TYPE":"0","REV_AT_EPOCH":"5662","MEAN_MOTION":"15.06407076","RCS_SIZE":"LARGE"},{"GP_ID":"196131652","INCLINATION":"53.0533","LAUNCH_DATE":"2021-02-16","TIME_SYSTEM":"UTC","TLE_LINE2":"2 47668  53.0533 223.8254 0001736  65.0424 295.0745 15.06399656 56920","RA_OF_ASC_NODE":"223.8254","MEAN_ELEMENT_THEORY":"SGP4","ARG_OF_PERICENTER":"65.0424","OBJECT_ID":"2021-012BA","BSTAR":"0.00004059200000","FILE":"3302660","SEMIMAJOR_AXIS":"6925.350","OBJECT_NAME":"STARLINK-2059","SITE":"AFETR","COUNTRY_CODE":"US","ECCENTRICITY":"0.00017360","NORAD_CAT_ID":"47668","EPOCH":"2022-02-16T20:34:36.246144","OBJECT_TYPE":"PAYLOAD","REF_FRAME":"TEME","APOAPSIS":"548.417","DECAY_DATE":null,"ELEMENT_SET_NO":"999","MEAN_ANOMALY":"295.0745","PERIOD":"95.592","CLASSIFICATION_TYPE":"U","TLE_LINE1":"1 47668U 21012BA  22047.85736396  .00000323  00000-0  40592-4 0  9991","PERIAPSIS":"546.012","MEAN_MOTION_DOT":"0.00000323","MEAN_MOTION_DDOT":"0.0000000000000","RCS_SIZE":"LARGE","MEAN_MOTION":"15.06399656","REV_AT_EPOCH":"5692","EPHEMERIS_TYPE":"0","CENTER_NAME":"EARTH"},{"ELEMENT_SET_NO":"999","APOAPSIS":"548.257","DECAY_DATE":null,"OBJECT_TYPE":"PAYLOAD","REF_FRAME":"TEME","EPOCH":"2022-02-16T22:00:00.999936","PERIOD":"95.591","CLASSIFICATION_TYPE":"U","MEAN_ANOMALY":"262.8440","MEAN_MOTION_DDOT":"0.0000000000000","PERIAPSIS":"546.012","MEAN_MOTION_DOT":"-0.00073878","TLE_LINE1":"1 47669U 21012BB  22047.91667824 -.00073878  00000-0 -49890-2 0  9993","CENTER_NAME":"EARTH","EPHEMERIS_TYPE":"0","REV_AT_EPOCH":"360","MEAN_MOTION":"15.06425820","RCS_SIZE":"LARGE","TIME_SYSTEM":"UTC","LAUNCH_DATE":"2021-02-16","TLE_LINE2":"2 47669  53.0544 148.5567 0001621  56.7615 262.8440 15.06425820  3609","INCLINATION":"53.0544","GP_ID":"196131904","SEMIMAJOR_AXIS":"6925.269","FILE":"3302660","BSTAR":"-0.00498900000000","ARG_OF_PERICENTER":"56.7615","OBJECT_ID":"2021-012BB","RA_OF_ASC_NODE":"148.5567","MEAN_ELEMENT_THEORY":"SGP4","NORAD_CAT_ID":"47669","ECCENTRICITY":"0.00016210","COUNTRY_CODE":"US","SITE":"AFETR","OBJECT_NAME":"STARLINK-2060"},{"MEAN_MOTION":"15.06402011","RCS_SIZE":"LARGE","REV_AT_EPOCH":"5690","EPHEMERIS_TYPE":"0","CENTER_NAME":"EARTH","TLE_LINE1":"1 47670U 21012BC  22047.80577627  .00002721  00000-0  20147-3 0  9996","PERIAPSIS":"545.813","MEAN_MOTION_DOT":"0.00002721","MEAN_MOTION_DDOT":"0.0000000000000","MEAN_ANOMALY":"320.3862","PERIOD":"95.592","CLASSIFICATION_TYPE":"U","EPOCH":"2022-02-16T19:20:19.069728","OBJECT_TYPE":"PAYLOAD","REF_FRAME":"TEME","APOAPSIS":"548.602","DECAY_DATE":null,"ELEMENT_SET_NO":"999","OBJECT_NAME":"STARLINK-2062","SITE":"AFETR","COUNTRY_CODE":"US","NORAD_CAT_ID":"47670","ECCENTRICITY":"0.00020140","RA_OF_ASC_NODE":"224.0425","MEAN_ELEMENT_THEORY":"SGP4","OBJECT_ID":"2021-012BC","ARG_OF_PERICENTER":"39.7274","BSTAR":"0.00020147000000","FILE":"3302660","SEMIMAJOR_AXIS":"6925.342","GP_ID":"196132654","INCLINATION":"53.0531","TIME_SYSTEM":"UTC","LAUNCH_DATE":"2021-02-16","TLE_LINE2":"2 47670  53.0531 224.0425 0002014  39.7274 320.3862 15.06402011 56905"},{"INCLINATION":"53.0522","TLE_LINE2":"2 47671  53.0522 224.1443 0001473  78.1842 281.9312 15.06395893 56915","TIME_SYSTEM":"UTC","LAUNCH_DATE":"2021-02-16","GP_ID":"196131402","COUNTRY_CODE":"US","SITE":"AFETR","NORAD_CAT_ID":"47671","ECCENTRICITY":"0.00014730","OBJECT_NAME":"STARLINK-2064","FILE":"3302660","BSTAR":"0.00002415300000","SEMIMAJOR_AXIS":"6925.361","MEAN_ELEMENT_THEORY":"SGP4","RA_OF_ASC_NODE":"224.1443","ARG_OF_PERICENTER":"78.1842","OBJECT_ID":"2021-012BD","CLASSIFICATION_TYPE":"U","PERIOD":"95.592","MEAN_ANOMALY":"281.9312","DECAY_DATE":null,"APOAPSIS":"548.246","ELEMENT_SET_NO":"999","EPOCH":"2022-02-16T18:53:45.564288","REF_FRAME":"TEME","OBJECT_TYPE":"PAYLOAD","EPHEMERIS_TYPE":"0","CENTER_NAME":"EARTH","MEAN_MOTION":"15.06395893","RCS_SIZE":"LARGE","REV_AT_EPOCH":"5691","MEAN_MOTION_DOT":"0.00000078","PERIAPSIS":"546.206","MEAN_MOTION_DDOT":"0.0000000000000","TLE_LINE1":"1 47671U 21012BD  22047.78733292  .00000078  00000-0  24153-4 0  9991"},{"APOAPSIS":"548.132","DECAY_DATE":null,"ELEMENT_SET_NO":"999","EPOCH":"2022-02-16T19:58:46.998624","OBJECT_TYPE":"PAYLOAD","REF_FRAME":"TEME","PERIOD":"95.592","CLASSIFICATION_TYPE":"U","MEAN_ANOMALY":"265.7396","PERIAPSIS":"546.281","MEAN_MOTION_DOT":"0.00003128","MEAN_MOTION_DDOT":"0.0000000000000","TLE_LINE1":"1 47672U 21012BE  22047.83248841  .00003128  00000-0  22880-3 0  9992","EPHEMERIS_TYPE":"0","CENTER_NAME":"EARTH","RCS_SIZE":"LARGE","MEAN_MOTION":"15.06402296","REV_AT_EPOCH":"5703","INCLINATION":"53.0533","TIME_SYSTEM":"UTC","LAUNCH_DATE":"2021-02-16","TLE_LINE2":"2 47672  53.0533 213.9269 0001336  94.3746 265.7396 15.06402296 57033","GP_ID":"196131153","BSTAR":"0.00022880000000","FILE":"3302660","SEMIMAJOR_AXIS":"6925.342","RA_OF_ASC_NODE":"213.9269","MEAN_ELEMENT_THEORY":"SGP4","OBJECT_ID":"2021-012BE","ARG_OF_PERICENTER":"94.3746","SITE":"AFETR","COUNTRY_CODE":"US","NORAD_CAT_ID":"47672","ECCENTRICITY":"0.00013360","OBJECT_NAME":"STARLINK-2065"},{"ELEMENT_SET_NO":"999","DECAY_DATE":null,"APOAPSIS":"548.364","REF_FRAME":"TEME","OBJECT_TYPE":"PAYLOAD","EPOCH":"2022-02-16T21:01:08.732064","CLASSIFICATION_TYPE":"U","PERIOD":"95.592","MEAN_ANOMALY":"289.2814","MEAN_MOTION_DDOT":"0.0000000000000","MEAN_MOTION_DOT":"0.00003556","PERIAPSIS":"546.033","TLE_LINE1":"1 47673U 21012BF  22047.87579551  .00003556  00000-0  25747-3 0  9992","CENTER_NAME":"EARTH","EPHEMERIS_TYPE":"0","REV_AT_EPOCH":"5691","MEAN_MOTION":"15.06404954","RCS_SIZE":"LARGE","TLE_LINE2":"2 47673  53.0538 223.7393 0001683  70.8357 289.2814 15.06404954 56913","TIME_SYSTEM":"UTC","LAUNCH_DATE":"2021-02-16","INCLINATION":"53.0538","GP_ID":"196132404","SEMIMAJOR_AXIS":"6925.333","BSTAR":"0.00025747000000","FILE":"3302660","OBJECT_ID":"2021-012BF","ARG_OF_PERICENTER":"70.8357","MEAN_ELEMENT_THEORY":"SGP4","RA_OF_ASC_NODE":"223.7393","NORAD_CAT_ID":"47673","ECCENTRICITY":"0.00016830","SITE":"AFETR","COUNTRY_CODE":"US","OBJECT_NAME":"STARLINK-2066"},{"CENTER_NAME":"EARTH","EPHEMERIS_TYPE":"0","REV_AT_EPOCH":"5692","MEAN_MOTION":"15.06393961","RCS_SIZE":"LARGE","MEAN_MOTION_DDOT":"0.0000000000000","MEAN_MOTION_DOT":"-0.00000017","PERIAPSIS":"546.258","TLE_LINE1":"1 47674U 21012BG  22047.89054661 -.00000017  00000-0  17762-4 0  9994","CLASSIFICATION_TYPE":"U","PERIOD":"95.593","MEAN_ANOMALY":"291.7512","ELEMENT_SET_NO":"999","DECAY_DATE":null,"APOAPSIS":"548.206","REF_FRAME":"TEME","OBJECT_TYPE":"PAYLOAD","EPOCH":"2022-02-16T21:22:23.227104","NORAD_CAT_ID":"47674","ECCENTRICITY":"0.00014070","SITE":"AFETR","COUNTRY_CODE":"US","OBJECT_NAME":"STARLINK-2067","SEMIMAJOR_AXIS":"6925.367","FILE":"3302660","BSTAR":"0.00001776200000","OBJECT_ID":"2021-012BG","ARG_OF_PERICENTER":"68.3627","MEAN_ELEMENT_THEORY":"SGP4","RA_OF_ASC_NODE":"223.6607","TLE_LINE2":"2 47674  53.0541 223.6607 0001407  68.3627 291.7512 15.06393961 56920","LAUNCH_DATE":"2021-02-16","TIME_SYSTEM":"UTC","INCLINATION":"53.0541","GP_ID":"196132155"}];
